NORAD_CAT_ID,OBJECT_NAME,OBJECT_TYPE,EPOCH,MEAN_MOTION,ECCENTRICITY,INCLINATION,RA_OF_ASC_NODE,ARG_OF_PERICENTER,MEAN_ANOMALY,BSTAR,MEAN_MOTION_DOT,MEAN_MOTION_DDOT,TLE_LINE0,TLE_LINE1,TLE_LINE2,SEMIMAJOR_AXIS,PERIOD,APOGEE,PERIGEE,DECAYED
54007.0,STARLINK-5132,PAYLOAD,2023-08-26 11:52:39,15.08836501,0.0001198,53.2168,51.6146,88.8631,271.2498,6.2787e-05,7.11e-06,0.0,0 STARLINK-5132,1 54007U 22125AV  23238.49490501  .00000711  00000-0  62787-4 0  9991,2 54007  53.2168  51.6146 0001198  88.8631 271.2498 15.08836501 49642,6917.891,95.438,540.585,538.927,0.0
54007.0,STARLINK-5132,PAYLOAD,2023-08-26 18:14:12,15.08842343,0.0001267,53.2167,50.4256,87.3078,272.8059,0.0001605,2.268e-05,0.0,0 STARLINK-5132,1 54007U 22125AV  23238.75986313  .00002268  00000-0  16050-3 0  9991,2 54007  53.2167  50.4256 0001267  87.3078 272.8059 15.08842343 49737,6917.873,95.437,540.615,538.862,0.0
54007.0,STARLINK-5132,PAYLOAD,2023-08-26 21:24:58,15.08844867,0.0001264,53.2167,49.8305,88.4446,271.6691,0.00018802,2.706e-05,0.0,0 STARLINK-5132,1 54007U 22125AV  23238.89234167  .00002706  00000-0  18802-3 0  9993,2 54007  53.2167  49.8305 0001264  88.4446 271.6691 15.08844867 49701,6917.866,95.437,540.605,538.856,0.0
54007.0,STARLINK-5132,PAYLOAD,2023-08-27 10:08:03,15.0884763,0.0001291,53.2171,47.4504,100.2542,259.8596,0.00018358,2.636e-05,0.0,0 STARLINK-5132,1 54007U 22125AV  23239.42225951  .00002636  00000-0  18358-3 0  9992,2 54007  53.2171  47.4504 0001291 100.2542 259.8596 15.08847630 49782,6917.857,95.437,540.615,538.829,0.0
54007.0,STARLINK-5132,PAYLOAD,2023-08-27 16:29:35,15.08843941,0.000128,53.2165,46.2609,108.1915,251.9217,0.0001624,2.298e-05,0.0,0 STARLINK-5132,1 54007U 22125AV  23239.68722204  .00002298  00000-0  16240-3 0  9995,2 54007  53.2165  46.2609 0001280 108.1915 251.9217 15.08843941 49826,6917.868,95.437,540.619,538.848,0.0
54007.0,STARLINK-5132,PAYLOAD,2023-08-28 09:58:50,15.08843703,0.0001304,53.217,42.994,92.375,267.7391,0.00018041,2.585e-05,0.0,0 STARLINK-5132,1 54007U 22125AV  23240.41586279  .00002585  00000-0  18041-3 0  9998,2 54007  53.2170  42.9940 0001304  92.3750 267.7391 15.08843703 49982,6917.869,95.437,540.636,538.832,0.0
54007.0,STARLINK-5132,PAYLOAD,2023-08-28 17:55:46,15.08840781,0.00014,53.2175,41.5059,99.0115,261.1035,0.00011516,1.545e-05,0.0,0 STARLINK-5132,1 54007U 22125AV  23240.74706452  .00001545  00000-0  11516-3 0  9996,2 54007  53.2175  41.5059 0001400  99.0115 261.1035 15.08840781 49985,6917.878,95.438,540.712,538.774,0.0
54007.0,STARLINK-5132,PAYLOAD,2023-08-29 09:49:37,15.08840563,0.0001377,53.2174,38.5318,97.7283,262.3865,0.00010154,1.328e-05,0.0,0 STARLINK-5132,1 54007U 22125AV  23241.40946488  .00001328  00000-0  10154-3 0  9991,2 54007  53.2174  38.5318 0001377  97.7283 262.3865 15.08840563 50133,6917.879,95.438,540.696,538.791,0.0
54007.0,STARLINK-5132,PAYLOAD,2023-08-29 16:11:10,15.08842169,0.0001404,53.2178,37.3424,99.5123,260.6028,0.00010701,1.416e-05,0.0,0 STARLINK-5132,1 54007U 22125AV  23241.67442441  .00001416  00000-0  10701-3 0  9996,2 54007  53.2178  37.3424 0001404  99.5123 260.6028 15.08842169 50121,6917.874,95.437,540.71,538.767,0.0
54007.0,STARLINK-5132,PAYLOAD,2023-08-30 16:01:57,15.08838981,0.0001401,53.2182,32.8825,98.2072,261.9079,4.8564e-05,4.85e-06,0.0,0 STARLINK-5132,1 54007U 22125AV  23242.66802612  .00000485  00000-0  48564-4 0  9990,2 54007  53.2182  32.8825 0001401  98.2072 261.9079 15.08838981 50326,6917.884,95.438,540.718,538.779,0.0
54007.0,STARLINK-5132,PAYLOAD,2023-08-31 11:06:34,15.08864991,0.0001748,53.219,29.3136,82.9775,277.1416,-0.00042272,-7.014e-05,0.0,0 STARLINK-5132,1 54007U 22125AV  23243.46290451 -.00007014  00000-0 -42272-3 0  9997,2 54007  53.2190  29.3136 0001748  82.9775 277.1416 15.08864991 50442,6917.804,95.436,540.878,538.46,0.0
54007.0,STARLINK-5132,PAYLOAD,2023-09-01 03:00:26,15.0884356,0.0001518,53.2197,26.3401,90.1286,269.988,1.1781e-05,-1e-06,0.0,0 STARLINK-5132,1 54007U 22125AV  23244.12530973 -.00000100  00000-0  11781-4 0  9997,2 54007  53.2197  26.3401 0001518  90.1286 269.9880 15.08843560 50548,6917.87,95.437,540.785,538.684,0.0
54007.0,STARLINK-5132,PAYLOAD,2023-09-01 09:21:59,15.08836632,0.0001569,53.2198,25.1508,88.1578,271.9594,0.00014628,2.041e-05,0.0,0 STARLINK-5132,1 54007U 22125AV  23244.39027246  .00002041  00000-0  14628-3 0  9997,2 54007  53.2198  25.1508 0001569  88.1578 271.9594 15.08836632 50537,6917.891,95.438,540.841,538.67,0.0
54007.0,STARLINK-5132,PAYLOAD,2023-09-01 15:43:31,15.08839208,3.84e-05,53.2192,23.9615,97.7534,262.3502,0.00023204,3.407e-05,0.0,0 STARLINK-5132,1 54007U 22125AV  23244.65522554  .00003407  00000-0  23204-3 0  9995,2 54007  53.2192  23.9615 0000384  97.7534 262.3502 15.08839208 50577,6917.883,95.438,540.013,539.482,0.0
54007.0,STARLINK-5132,PAYLOAD,2023-09-02 09:12:46,15.08840891,0.0001498,53.2174,20.6904,86.0258,274.0905,0.00012506,1.703e-05,0.0,0 STARLINK-5132,1 54007U 22125AV  23245.38386961  .00001703  00000-0  12506-3 0  9996,2 54007  53.2174  20.6904 0001498  86.0258 274.0905 15.08840891 50738,6917.878,95.437,540.779,538.706,0.0
54007.0,STARLINK-5132,PAYLOAD,2023-09-02 12:23:32,15.08839762,0.0001488,53.2178,20.0958,86.212,273.9043,0.00011173,1.491e-05,0.0,0 STARLINK-5132,1 54007U 22125AV  23245.51635064  .00001491  00000-0  11173-3 0  9995,2 54007  53.2178  20.0958 0001488  86.2120 273.9043 15.08839762 50707,6917.881,95.438,540.775,538.717,0.0
54007.0,STARLINK-5132,PAYLOAD,2023-09-02 15:34:18,15.08846907,0.0001353,53.2191,19.4993,101.7639,258.3505,0.00011037,1.469e-05,0.0,0 STARLINK-5132,1 54007U 22125AV  23245.64882510  .00001469  00000-0  11037-3 0  9993,2 54007  53.2191  19.4993 0001353 101.7639 258.3505 15.08846907 50723,6917.859,95.437,540.66,538.788,0.0
54007.0,STARLINK-5132,PAYLOAD,2023-09-03 09:03:33,15.08833206,0.0001391,53.219,16.2283,104.3969,255.7177,0.00029966,4.483e-05,0.0,0 STARLINK-5132,1 54007U 22125AV  23246.37746873  .00004483  00000-0  29966-3 0  9994,2 54007  53.2190  16.2283 0001391 104.3969 255.7177 15.08833206 50832,6917.901,95.438,540.728,538.804,0.0
54007.0,STARLINK-5132,PAYLOAD,2023-09-03 15:25:05,15.08846525,0.0001271,53.2186,15.0408,89.7164,270.3974,8.3888e-05,1.048e-05,0.0,0 STARLINK-5132,1 54007U 22125AV  23246.64242364  .00001048  00000-0  83888-4 0  9998,2 54007  53.2186  15.0408 0001271  89.7164 270.3974 15.08846525 50929,6917.86,95.437,540.605,538.846,0.0
54007.0,STARLINK-5132,PAYLOAD,2023-09-04 08:54:20,15.0883332,7.94e-05,53.2192,11.7685,90.1011,270.0072,-6.6045e-06,-3.93e-06,0.0,0 STARLINK-5132,1 54007U 22125AV  23247.37107522 -.00000393  00000-0 -66045-5 0  9996,2 54007  53.2192  11.7685 0000794  90.1011 270.0072 15.08833320 51030,6917.901,95.438,540.315,539.217,0.0
54007.0,STARLINK-5132,PAYLOAD,2023-09-05 00:48:12,15.08837805,0.0001327,53.2191,8.7941,98.5383,261.576,2.0503e-05,3.8e-07,0.0,0 STARLINK-5132,1 54007U 22125AV  23248.03347303  .00000038  00000-0  20503-4 0  9995,2 54007  53.2191   8.7941 0001327  98.5383 261.5760 15.08837805 51139,6917.887,95.438,540.67,538.834,0.0
54007.0,STARLINK-5132,PAYLOAD,2023-09-05 08:45:08,15.08836596,0.0001344,53.2191,7.3075,97.6816,262.4329,-5.2029e-06,-3.71e-06,0.0,0 STARLINK-5132,1 54007U 22125AV  23248.36467616 -.00000371  00000-0 -52029-5 0  9992,2 54007  53.2191   7.3075 0001344  97.6816 262.4329 15.08836596 51139,6917.891,95.438,540.686,538.826,0.0
54007.0,STARLINK-5132,PAYLOAD,2023-09-06 08:35:55,15.08827564,0.0001811,53.2196,2.8481,108.1851,251.9338,0.00017705,2.53e-05,0.0,0 STARLINK-5132,1 54007U 22125AV  23249.35828010  .00002530  00000-0  17705-3 0  9998,2 54007  53.2196   2.8481 0001811 108.1851 251.9338 15.08827564 51331,6917.918,95.438,541.036,538.531,0.0
54007.0,STARLINK-5132,PAYLOAD,2023-09-07 00:29:46,15.08841011,0.0001655,53.2187,359.8745,90.7507,269.3675,0.00010821,1.435e-05,0.0,0 STARLINK-5132,1 54007U 22125AV  23250.02067621  .00001435  00000-0  10821-3 0  9992,2 54007  53.2187 359.8745 0001655  90.7507 269.3675 15.08841011 51430,6917.877,95.437,540.887,538.597,0.0
54007.0,STARLINK-5132,PAYLOAD,2023-09-07 06:51:18,15.0884083,0.000164,53.2174,358.6852,91.241,268.877,0.00011985,1.62e-05,0.0,0 STARLINK-5132,1 54007U 22125AV  23250.28563611  .00001620  00000-0  11985-3 0  9998,2 54007  53.2174 358.6852 0001640  91.2410 268.8770 15.08840830 51422,6917.878,95.438,540.877,538.608,0.0
54007.0,STARLINK-5132,PAYLOAD,2023-09-08 06:42:06,15.08837714,0.000179,53.2196,354.2258,90.3314,269.7884,0.00010176,1.332e-05,0.0,0 STARLINK-5132,1 54007U 22125AV  23251.27923913  .00001332  00000-0  10176-3 0  9994,2 54007  53.2196 354.2258 0001790  90.3314 269.7884 15.08837714 51622,6917.887,95.438,540.991,538.514,0.0
54007.0,STARLINK-5132,PAYLOAD,2023-09-08 13:03:38,15.08842838,0.0001644,53.2196,353.0365,87.1059,273.0122,3.3031e-05,2.38e-06,0.0,0 STARLINK-5132,1 54007U 22125AV  23251.54419722  .00000238  00000-0  33031-4 0  9992,2 54007  53.2196 353.0365 0001644  87.1059 273.0122 15.08842838 51611,6917.872,95.437,540.874,538.599,0.0
54007.0,STARLINK-5132,PAYLOAD,2023-09-08 16:14:24,15.08846486,0.0001314,53.219,352.4409,87.2451,272.8692,5.0045e-05,5.09e-06,0.0,0 STARLINK-5132,1 54007U 22125AV  23251.67667312  .00000509  00000-0  50045-4 0  9991,2 54007  53.2190 352.4409 0001314  87.2451 272.8692 15.08846486 51632,6917.861,95.437,540.635,538.817,0.0
54007.0,STARLINK-5132,PAYLOAD,2023-09-09 00:11:21,15.08834409,0.0001819,53.22,350.9552,80.0802,280.0396,4.992e-06,-2.09e-06,0.0,0 STARLINK-5132,1 54007U 22125AV  23252.00788407 -.00000209  00000-0  49920-5 0  9997,2 54007  53.2200 350.9552 0001819  80.0802 280.0396 15.08834409 51732,6917.897,95.438,541.021,538.504,0.0
54007.0,STARLINK-5132,PAYLOAD,2023-09-09 12:54:25,15.08838234,0.0001353,53.2185,348.5756,85.9549,274.1597,3.0772e-05,2.02e-06,0.0,0 STARLINK-5132,1 54007U 22125AV  23252.53780073  .00000202  00000-0  30772-4 0  9992,2 54007  53.2185 348.5756 0001353  85.9549 274.1597 15.08838234 51768,6917.886,95.438,540.687,538.815,0.0
